{
  "norad_id": 67134,
  "name": "KUIPER-00164",
  "history": [
    {
      "epoch": "2026-03-28T22:00:01.999584Z",
      "apogee_km": 634.1309901553732,
      "perigee_km": 632.3611768374376,
      "latitude_deg": -15.235685789103606,
      "longitude_deg": 16.325131836058834,
      "height_km": 638.0471324575458,
      "semi_major_axis_km": 7011.383083496406,
      "eccentricity": 0.00012621,
      "inclination_deg": 51.9044,
      "raan_deg": 340.4025,
      "arg_perigee_deg": 2.6674,
      "mean_anomaly_deg": 196.6406,
      "mean_motion_rev_day": 14.78758375
    },
    {
      "epoch": "2026-03-29T04:00:01.999584Z",
      "apogee_km": 635.1798082808673,
      "perigee_km": 631.399247097137,
      "latitude_deg": 52.04461275498455,
      "longitude_deg": -175.6848440758183,
      "height_km": 638.1355580416011,
      "semi_major_axis_km": 7011.426527689002,
      "eccentricity": 0.0002696,
      "inclination_deg": 51.9044,
      "raan_deg": 339.2992,
      "arg_perigee_deg": 45.8299,
      "mean_anomaly_deg": 45.135,
      "mean_motion_rev_day": 14.78744631
    },
    {
      "epoch": "2026-03-30T04:00:01.999584Z",
      "apogee_km": 642.1995707264123,
      "perigee_km": 639.0937589547202,
      "latitude_deg": 8.624698271681922,
      "longitude_deg": 94.12099661822342,
      "height_km": 639.2145701753187,
      "semi_major_axis_km": 7018.7836648405655,
      "eccentricity": 0.00022125,
      "inclination_deg": 51.9037,
      "raan_deg": 334.8994,
      "arg_perigee_deg": 29.7184,
      "mean_anomaly_deg": 341.3044,
      "mean_motion_rev_day": 14.76420195
    },
    {
      "epoch": "2026-03-30T14:00:03.000384Z",
      "apogee_km": 641.7321759291717,
      "perigee_km": 639.6637252692308,
      "latitude_deg": 46.60235624668203,
      "longitude_deg": -9.37055820034199,
      "height_km": 644.817360521414,
      "semi_major_axis_km": 7018.834950599201,
      "eccentricity": 0.00014735,
      "inclination_deg": 51.9043,
      "raan_deg": 333.0656,
      "arg_perigee_deg": 28.8899,
      "mean_anomaly_deg": 38.185,
      "mean_motion_rev_day": 14.76404013
    },
    {
      "epoch": "2026-03-30T22:00:00.999936Z",
      "apogee_km": 641.7772661948547,
      "perigee_km": 639.4316028074436,
      "latitude_deg": 30.29287830899736,
      "longitude_deg": -159.60623393153708,
      "height_km": 641.0672128833786,
      "semi_major_axis_km": 7018.741434501148,
      "eccentricity": 0.0001671,
      "inclination_deg": 51.9042,
      "raan_deg": 331.6017,
      "arg_perigee_deg": 27.9429,
      "mean_anomaly_deg": 11.7814,
      "mean_motion_rev_day": 14.7643352
    },
    {
      "epoch": "2026-03-31T20:00:01.999008Z",
      "apogee_km": 641.7309263618445,
      "perigee_km": 639.4161556254248,
      "latitude_deg": -40.29375614304379,
      "longitude_deg": 59.74309949575297,
      "height_km": 654.8069894296987,
      "semi_major_axis_km": 7018.710540993635,
      "eccentricity": 0.0001649,
      "inclination_deg": 51.904,
      "raan_deg": 327.5704,
      "arg_perigee_deg": 31.8085,
      "mean_anomaly_deg": 203.1303,
      "mean_motion_rev_day": 14.76443268
    },
    {
      "epoch": "2026-04-01T20:00:01.999008Z",
      "apogee_km": 641.7330461141319,
      "perigee_km": 639.3831869891092,
      "latitude_deg": 20.736041081318337,
      "longitude_deg": -4.195473475632265,
      "height_km": 641.5158651862135,
      "semi_major_axis_km": 7018.69511655162,
      "eccentricity": 0.0001674,
      "inclination_deg": 51.9037,
      "raan_deg": 323.1733,
      "arg_perigee_deg": 34.2207,
      "mean_anomaly_deg": 119.0886,
      "mean_motion_rev_day": 14.76448135
    },
    {
      "epoch": "2026-04-02T20:00:01.999008Z",
      "apogee_km": 641.7647371641006,
      "perigee_km": 639.316622389395,
      "latitude_deg": 48.496278151628,
      "longitude_deg": -110.61539660465586,
      "height_km": 644.9015499731703,
      "semi_major_axis_km": 7018.677679776748,
      "eccentricity": 0.0001744,
      "inclination_deg": 51.9032,
      "raan_deg": 318.7759,
      "arg_perigee_deg": 36.8897,
      "mean_anomaly_deg": 34.8092,
      "mean_motion_rev_day": 14.76453637
    },
    {
      "epoch": "2026-04-02T22:00:01.999584Z",
      "apogee_km": 641.8398640023815,
      "perigee_km": 639.3089166750242,
      "latitude_deg": 19.528342831893536,
      "longitude_deg": -38.912295300039546,
      "height_km": 641.4598106046814,
      "semi_major_axis_km": 7018.711390338703,
      "eccentricity": 0.0001803,
      "inclination_deg": 51.9032,
      "raan_deg": 318.4097,
      "arg_perigee_deg": 36.6594,
      "mean_anomaly_deg": 118.2414,
      "mean_motion_rev_day": 14.76443
    },
    {
      "epoch": "2026-04-03T18:25:15.829248Z",
      "apogee_km": 641.7531300581713,
      "perigee_km": 639.3372996398211,
      "latitude_deg": 1.6265329152923613e-06,
      "longitude_deg": -153.74618101875478,
      "height_km": 640.3284049215903,
      "semi_major_axis_km": 7018.682214848996,
      "eccentricity": 0.0001721,
      "inclination_deg": 51.9034,
      "raan_deg": 314.6669,
      "arg_perigee_deg": 37.2537,
      "mean_anomaly_deg": 322.8543,
      "mean_motion_rev_day": 14.76452206
    },
    {
      "epoch": "2026-04-04T18:47:20.698944Z",
      "apogee_km": 641.7393830961873,
      "perigee_km": 639.3137329705305,
      "latitude_deg": 1.5972206974803194e-05,
      "longitude_deg": -164.7323199888586,
      "height_km": 640.3364885493737,
      "semi_major_axis_km": 7018.663558033359,
      "eccentricity": 0.0001728,
      "inclination_deg": 51.9034,
      "raan_deg": 310.2018,
      "arg_perigee_deg": 39.5898,
      "mean_anomaly_deg": 320.5189,
      "mean_motion_rev_day": 14.76458093
    },
    {
      "epoch": "2026-04-05T07:47:07.144800Z",
      "apogee_km": 641.7394855153716,
      "perigee_km": 639.2948882620776,
      "latitude_deg": -1.4863918375280177e-06,
      "longitude_deg": -2.591195193981709,
      "height_km": 640.3365089126892,
      "semi_major_axis_km": 7018.654186888724,
      "eccentricity": 0.00017415,
      "inclination_deg": 51.9038,
      "raan_deg": 307.8202,
      "arg_perigee_deg": 40.8024,
      "mean_anomaly_deg": 319.3067,
      "mean_motion_rev_day": 14.7646105
    },
    {
      "epoch": "2026-04-05T20:46:53.583744Z",
      "apogee_km": 641.71303293445,
      "perigee_km": 639.314058177979,
      "latitude_deg": -2.150738624103927e-05,
      "longitude_deg": 159.5504562992414,
      "height_km": 640.3591223446051,
      "semi_major_axis_km": 7018.650545556214,
      "eccentricity": 0.0001709,
      "inclination_deg": 51.9036,
      "raan_deg": 305.4391,
      "arg_perigee_deg": 41.4558,
      "mean_anomaly_deg": 318.6532,
      "mean_motion_rev_day": 14.76462199
    },
    {
      "epoch": "2026-04-06T06:31:43.287456Z",
      "apogee_km": 641.7319245452545,
      "perigee_km": 639.2730143935214,
      "latitude_deg": 2.1027393055104723e-05,
      "longitude_deg": 11.156788938020297,
      "height_km": 640.3547593411186,
      "semi_major_axis_km": 7018.639469469388,
      "eccentricity": 0.00017517,
      "inclination_deg": 51.9039,
      "raan_deg": 303.6528,
      "arg_perigee_deg": 43.4746,
      "mean_anomaly_deg": 316.6353,
      "mean_motion_rev_day": 14.76465694
    },
    {
      "epoch": "2026-04-07T19:53:33.618912Z",
      "apogee_km": 641.7618127497972,
      "perigee_km": 639.2112449594115,
      "latitude_deg": 2.279523904715123e-05,
      "longitude_deg": 162.31628750755016,
      "height_km": 640.386676121827,
      "semi_major_axis_km": 7018.623528854604,
      "eccentricity": 0.0001817,
      "inclination_deg": 51.9036,
      "raan_deg": 296.8065,
      "arg_perigee_deg": 48.5564,
      "mean_anomaly_deg": 311.5553,
      "mean_motion_rev_day": 14.76470724
    },
    {
      "epoch": "2026-04-08T12:08:16.229760Z",
      "apogee_km": 641.7495528543222,
      "perigee_km": 639.2126031638445,
      "latitude_deg": 6.100890085482147e-05,
      "longitude_deg": -85.00469537172198,
      "height_km": 640.4094787499178,
      "semi_major_axis_km": 7018.618078009083,
      "eccentricity": 0.00018073,
      "inclination_deg": 51.9041,
      "raan_deg": 293.8302,
      "arg_perigee_deg": 49.971,
      "mean_anomaly_deg": 310.141,
      "mean_motion_rev_day": 14.76472444
    },
    {
      "epoch": "2026-04-08T23:30:35.779392Z",
      "apogee_km": 641.9790370935934,
      "perigee_km": 639.1830605716596,
      "latitude_deg": 4.308082401555169e-05,
      "longitude_deg": 101.86309695181055,
      "height_km": 640.4264906592426,
      "semi_major_axis_km": 7018.718048832626,
      "eccentricity": 0.00019918,
      "inclination_deg": 51.9047,
      "raan_deg": 291.7465,
      "arg_perigee_deg": 49.9966,
      "mean_anomaly_deg": 310.117,
      "mean_motion_rev_day": 14.76440899
    },
    {
      "epoch": "2026-04-10T12:52:29.953056Z",
      "apogee_km": 642.0606997660452,
      "perigee_km": 639.1914294252374,
      "latitude_deg": 9.89482354190771e-07,
      "longitude_deg": -106.99409172338804,
      "height_km": 640.4623578314647,
      "semi_major_axis_km": 7018.763064595641,
      "eccentricity": 0.0002044,
      "inclination_deg": 51.9049,
      "raan_deg": 284.8996,
      "arg_perigee_deg": 50.7467,
      "mean_anomaly_deg": 309.3675,
      "mean_motion_rev_day": 14.76426695
    },
    {
      "epoch": "2026-04-11T11:37:08.985792Z",
      "apogee_km": 642.0926700324862,
      "perigee_km": 639.2149657971413,
      "latitude_deg": 1.4204638905904461e-05,
      "longitude_deg": -93.25718978565665,
      "height_km": 640.6649048909013,
      "semi_major_axis_km": 7018.7908179148135,
      "eccentricity": 0.000205,
      "inclination_deg": 51.9032,
      "raan_deg": 280.7332,
      "arg_perigee_deg": 59.3959,
      "mean_anomaly_deg": 300.7204,
      "mean_motion_rev_day": 14.76417938
    }
  ]
}